ORBCOMM FM05            
1 25117U 97084F   26025.00561251  .00003208  00000+0  91435-3 0  9996
2 25117  45.0150  22.2966 0004297 274.6852  85.3509 14.46905109472727
ORBCOMM FM06            
1 25118U 97084G   26025.05176884  .00003355  00000+0  95122-3 0  9996
2 25118  45.0142  21.5409 0003234 279.7231 123.0502 14.47075123473651
ORBCOMM FM07            
1 25119U 97084H   26024.98648223  .00002929  00000+0  83534-3 0  9999
2 25119  45.0135  22.5982 0005018 269.6947  90.3330 14.47081658473638
ORBCOMM FM03            
1 25158U 98007B   26025.11332615  .00002315  00000+0  84453-3 0  9999
2 25158 107.9652 231.6860 0045843 222.4361 137.3230 14.35185022455872
ORBCOMM FM04            
1 25159U 98007C   26025.12941376  .00001945  00000+0  71510-3 0  9999
2 25159 107.9640 235.0915 0041556 219.9290 139.8791 14.35419286456061
ORBCOMM FM17            
1 25413U 98046A   26025.01291590  .00001402  00000+0  53015-3 0  9997
2 25413  44.9939 290.2861 0002701 273.1465  86.9073 14.35649501435048
ORBCOMM FM18            
1 25414U 98046B   26024.90342300  .00002194  00000+0  74529-3 0  9993
2 25414  44.9907 202.1276 0003707 317.7398  42.3165 14.39303409436185
ORBCOMM FM19            
1 25415U 98046C   26024.90724653  .00002205  00000+0  75156-3 0  9999
2 25415  44.9915 204.4455 0002513 309.2364 198.4269 14.39126805436138
